#aV2006  9 29  0  0   .00000000      96 DD+AD WGS84 FIT  NGA
## 1394 432000.00000000   900.00000000 54007  .0000000000000
+   29     1  2  3  4  5  6  7  8  9 10 11 13 14 15 16 17 18
+         19 20 21 22 23 24 25 26 27 28 29 30  0  0  0  0  0
+          0  0  0  0  0  0  0  0  0  0  0  0  0  0  0  0  0
+          0  0  0  0  0  0  0  0  0  0  0  0  0  0  0  0  0
+          0  0  0  0  0  0  0  0  0  0  0  0  0  0  0  0  0
++         0  0  0  0  0  0  0  0  0  0  0  0  0  0  0  0  0
++         0  0  0  0  0  0  0  0  0  0  0  0  0  0  0  0  0
++         0  0  0  0  0  0  0  0  0  0  0  0  0  0  0  0  0
++         0  0  0  0  0  0  0  0  0  0  0  0  0  0  0  0  0
++         0  0  0  0  0  0  0  0  0  0  0  0  0  0  0  0  0
%c cc cc ccc ccc cccc cccc cccc cccc ccccc ccccc ccccc ccccc
%c cc cc ccc ccc cccc cccc cccc cccc ccccc ccccc ccccc ccccc
%f  0.0000000  0.000000000  0.00000000000  0.000000000000000
%f  0.0000000  0.000000000  0.00000000000  0.000000000000000
%i    0    0    0    0      0      0      0      0         0
%i    0    0    0    0      0      0      0      0         0
/*      NGA, ST. LOUIS,MO.                                  
/*   EPHEMERIS COMPUTED FROM  3 DAYS OF DATA                
/* CCCCCCCCCCCCCCCCCCCCCCCCCCCCCCCCCCCCCCCCCCCCCCCCCCCCCCCCC
/* CCCCCCCCCCCCCCCCCCCCCCCCCCCCCCCCCCCCCCCCCCCCCCCCCCCCCCCCC
*  2006  9 29 17 45   .00000000                                                 
P  1  14418.279761 -17210.410985 -13940.390047     79.546890                    
V  1  -3389.948153  17765.445778 -25143.936433       .022699                    
P  2 -21506.613339  12751.909105   8370.090053     39.818399                    
V  2 -11492.641644    131.143190 -29133.182753       .038128                    
P  3  11432.688393 -20927.305237  11170.987091    196.528791                    
V  3   1516.062664  15008.831182  26461.112547       .710936                    
P  4 -26107.802511   4815.517453  -3353.673087    317.176945                    
V  4   3241.727169  -3894.612623 -30863.201227       .053797                    
P  5   7881.750447  20556.027492 -15195.597647    355.511482                    
V  5 -16216.731034  -9983.559875 -22084.080476       .078908                    
P  6   9383.281347  18017.007230  17272.096806    589.399038                    
V  6  -6415.091460  20812.882917 -18489.621612      -.059964                    
P  7  16336.120596  -6134.810472  20385.694168    520.719812                    
V  7  -3293.501910  25014.937593  10248.495673      -.050829                    
P  8 -24178.749464  -1747.214486  11196.215986    -81.357227                    
V  8  13395.530078  -5205.673906  27350.330742      -.012955                    
P  9  -4211.156670  16693.784814 -20731.329476     38.142861                    
V  9 -24090.393441   7156.396444  11210.766744       .015449                    
P 10  -9663.644969  11401.974799  21849.479276     90.387024                    
V 10 -20029.019492 -19498.625108   1611.849288       .005473                    
P 11   -198.161288 -17570.670429 -19937.206684    352.734470                    
V 11  23663.174357  -9623.154283   8548.027768       .018290                    
P 13  -7993.099753 -17064.373659  18643.655895     98.740412                    
V 13   7112.962601 -22705.898810 -17605.918672       .034541                    
P 14  15084.766837  -1044.824361 -21754.822913     -4.557144                    
V 14  -6450.859424  26973.432727  -5818.790336       .007959                    
P 15  24764.185763   1747.567064   9881.245779     -7.209791                    
V 15 -11816.773966   5009.869283  27916.302541      -.062151                    
P 16  12826.382118  -8606.277761  21695.163071     77.532596                    
V 16  19463.580276  19209.375957  -3781.862182       .034210                    
P 17 -15568.699932    373.069275 -21510.087408     94.340715                    
V 17   5941.549986 -26665.157015  -4866.669863      -.011756                    
P 18  19652.649876  17972.992540  -2267.318333   -250.002449                    
V 18    168.157104   4018.755622  31271.343128      -.008007                    
P 19   8153.830473 -25228.586660    637.023689     19.896185                    
V 19   2636.048881   1521.021669  31735.083823       .033466                    
P 20 -10775.801219 -21310.823156 -11744.608791    -22.282171                    
V 20  12509.457444   8244.801345 -26608.258478       .001698                    
P 21  19861.118399   7242.682786  16485.393683     54.893830                    
V 21 -19490.448500   6963.830190  19983.582083       .017402                    
P 22  21154.152999   8008.780175 -13780.681378    138.072451                    
V 22  10556.938413  14496.872238  24320.516564       .030649                    
P 23  -1115.091344 -24509.631516   9839.060942    138.243471                    
V 23   5302.078626 -11765.180197 -28632.889959       .003333                    
P 24 -25891.230493   1825.724254  -6169.312545     39.909577                    
V 24   7207.347081  -4385.723300 -30210.333673       .030738                    
P 25  23956.071746 -11482.567737   2393.551033    356.701693                    
V 25   3420.037731   1665.338362 -31351.018479       .196983                    
P 26  -7717.045186  25015.943396   1440.727477   -273.567377                    
V 26  -1652.652026  -2880.913306  32737.933795      -.150534                    
P 27 -17491.087705  -7851.105123  19121.040821     70.302369                    
V 27  21128.387283  -8917.600103  15890.918901       .018589                    
P 28 -21760.210487 -11358.710746 -10281.703529     17.627574                    
V 28  -7912.611831 -11027.007325  27774.274242      -.007926                    
P 29  -9573.098598  23929.221209   5931.576110      5.653078                    
V 29   -396.540521  -7566.927255  31361.261346       .526866                    
P 30  17608.113261  19576.520713  -4232.342760     11.589673                    
V 30  -5821.296685   -959.025500 -30718.849432       .012086                    
EOF
